LUR-1                   
1 60506U 24149AQ  26068.79566301  .00009121  00000+0  32985-3 0  9998
2 60506  97.3790 148.4255 0002777 309.1571  50.9421 15.28658648 86785
STARLINK-32448          
1 62206U 24229Q   26068.54887050  .00033279  00000+0  12129-2 0  9994
2 62206  43.0029 271.1821 0001366 264.9409  95.1286 15.27594975 70549
